{"fetched_at":"2026-03-29T16:36:15Z","count":15609,"tles":[{"name":"STARLINK-35474","line1":"1 66437U 25259R   26087.61312397  .00030227  00000+0  11029-2 0  9992","line2":"2 66437  43.0031 167.6287 0001119 261.9945  98.0779 15.27597392 22389","category":"Starlink"}]}