{
  "norad_id": 66437,
  "name": "STARLINK-35474",
  "history": [
    {
      "epoch": "2026-03-28T14:42:53.911008Z",
      "apogee_km": 483.76477952569803,
      "perigee_km": 482.2292577323278,
      "latitude_deg": -4.7611332656692735e-05,
      "longitude_deg": 120.87296165522972,
      "height_km": 482.88073146692926,
      "semi_major_axis_km": 6861.134018629013,
      "eccentricity": 0.0001119,
      "inclination_deg": 43.0031,
      "raan_deg": 167.6287,
      "arg_perigee_deg": 261.9945,
      "mean_anomaly_deg": 98.0779,
      "mean_motion_rev_day": 15.27597392
    }
  ]
}